     2              NAVIGATION DATA                         RINEX VERSION / TYPE
CCRINEXN V1.6.0 UX  CDDIS               20-JUL-25 19:26     PGM / RUN BY / DATE 
IGS BROADCAST EPHEMERIS FILE                                COMMENT             
    0.1304D-07  0.2235D-07 -0.5960D-07 -0.1192D-06          ION ALPHA           
    0.1106D+06  0.1475D+06 -0.6554D+05 -0.3932D+06          ION BETA            
    0.931322574616D-09-0.710542735760D-14   233472     2376 DELTA-UTC: A0,A1,T,W
    18                                                      LEAP SECONDS        
                                                            END OF HEADER       
19 25  7 20 10  0  0.0 0.647773034871D-03 0.306954461848D-11 0.000000000000D+00
    0.170000000000D+02 0.123718750000D+03 0.454233206351D-08-0.175425593845D+01
    0.635907053947D-05 0.107651406433D-01 0.623427331448D-05 0.515365745163D+04
    0.360000000000D+05-0.119209289551D-06-0.154995929117D+00-0.268220901489D-06
    0.962113433052D+00 0.262468750000D+03 0.282484145991D+01-0.821534220198D-08
    0.179293182566D-09 0.100000000000D+01 0.237600000000D+04 0.000000000000D+00
    0.200000000000D+01 0.000000000000D+00-0.153668224812D-07 0.170000000000D+02
    0.288180000000D+05 0.400000000000D+01 0.000000000000D+00 0.000000000000D+00
22 25  7 20 10  0  0.0-0.100109726191D-03 0.113686837722D-11 0.000000000000D+00
    0.130000000000D+02 0.554375000000D+02 0.439339728835D-08-0.305237341999D+01
    0.286288559437D-05 0.130359584000D-01 0.104121863842D-04 0.515365321541D+04
    0.360000000000D+05 0.298023223877D-07-0.121471229693D+01 0.204890966415D-06
    0.958376407356D+00 0.171343750000D+03-0.105661331230D+01-0.762531762509D-08
   -0.344300055765D-09 0.100000000000D+01 0.237600000000D+04 0.000000000000D+00
    0.200000000000D+01 0.000000000000D+00-0.111758708954D-07 0.130000000000D+02
    0.288180000000D+05 0.400000000000D+01 0.000000000000D+00 0.000000000000D+00
23 25  7 20 10  0  0.0 0.513654667884D-03 0.613908923697D-11 0.000000000000D+00
    0.100000000000D+03-0.108937500000D+03 0.384123143128D-08-0.391227096453D+00
   -0.592134892940D-05 0.540628295857D-02 0.736117362976D-05 0.515366322708D+04
    0.360000000000D+05 0.115483999252D-06 0.181340530201D+01 0.670552253723D-07
    0.984915839138D+00 0.252375000000D+03-0.284893876061D+01-0.783675500373D-08
   -0.210723063176D-09 0.100000000000D+01 0.237600000000D+04 0.000000000000D+00
    0.200000000000D+01 0.000000000000D+00-0.838190317154D-08 0.612000000000D+03
    0.288180000000D+05 0.400000000000D+01 0.000000000000D+00 0.000000000000D+00
24 25  7 20 10  0  0.0-0.353157985956D-03 0.966338120634D-11 0.000000000000D+00
    0.950000000000D+02-0.187500000000D+01 0.548272837764D-08 0.834319304062D+00
   -0.147148966789D-06 0.169613095932D-01 0.651553273201D-05 0.515366199112D+04
    0.360000000000D+05-0.197440385819D-06-0.245698902652D+01 0.707805156708D-07
    0.934401874732D+00 0.242906250000D+03 0.107399959335D+01-0.868786188432D-08
   -0.310727228751D-10 0.100000000000D+01 0.237600000000D+04 0.000000000000D+00
    0.200000000000D+01 0.000000000000D+00 0.232830643654D-08 0.950000000000D+02
    0.290280000000D+05 0.400000000000D+01 0.000000000000D+00 0.000000000000D+00
25 25  7 20 10  0  0.0 0.479790382087D-03-0.147792889038D-11 0.000000000000D+00
    0.440000000000D+02 0.376562500000D+02 0.487556022951D-08-0.901716213540D+00
    0.223144888878D-05 0.122896699468D-01 0.935234129429D-05 0.515360305023D+04
    0.360000000000D+05 0.931322574616D-08-0.132666995882D+01 0.290572643280D-06
    0.947883368496D+00 0.197812500000D+03 0.112698539631D+01-0.817426906255D-08
   -0.322156276245D-09 0.100000000000D+01 0.237600000000D+04 0.000000000000D+00
    0.200000000000D+01 0.000000000000D+00 0.558793500000D-08 0.440000000000D+02
    0.324300000000D+05 0.400000000000D+01 0.000000000000D+00 0.000000000000D+00
27 25  7 20 10  0  0.0-0.234977342188D-04 0.113686837722D-12 0.000000000000D+00
    0.250000000000D+02 0.130093750000D+03 0.451947396852D-08 0.275944469153D+01
    0.652112066746D-05 0.134321949445D-01 0.599958002567D-05 0.515366032410D+04
    0.360000000000D+05 0.372529029846D-07-0.270146784218D+00-0.206753611565D-06
    0.956182758770D+00 0.261500000000D+03 0.851730040718D+00-0.788997150613D-08
    0.875036448780D-10 0.100000000000D+01 0.237600000000D+04 0.000000000000D+00
    0.200000000000D+01 0.000000000000D+00 0.232830600000D-08 0.250000000000D+02
    0.288600000000D+05 0.400000000000D+01 0.000000000000D+00 0.000000000000D+00
28 25  7 20 10  0  0.0-0.632773619145D-03-0.238742359215D-11 0.000000000000D+00
    0.157000000000D+03-0.728125000000D+01 0.466662295501D-08 0.975573794964D-01
   -0.242143869400D-06 0.335834105499D-03 0.659376382828D-05 0.515363663673D+04
    0.360000000000D+05-0.931322574616D-08-0.238082515474D+01 0.186264514923D-08
    0.961482836362D+00 0.250875000000D+03 0.134923690970D+00-0.799497587998D-08
    0.360729311538D-10 0.100000000000D+01 0.237600000000D+04 0.000000000000D+00
    0.200000000000D+01 0.000000000000D+00-0.931322600000D-08 0.413000000000D+03
    0.316800000000D+05 0.400000000000D+01 0.000000000000D+00 0.000000000000D+00
30 25  7 20 10  0  0.0-0.872658565640D-04 0.104591890704D-10 0.000000000000D+00
    0.107000000000D+03-0.156250000000D+01 0.537200948004D-08-0.327152443212D+00
    0.502914190292D-07 0.771220971365D-02 0.644102692604D-05 0.515364023399D+04
    0.360000000000D+05 0.763684511185D-07-0.235818882058D+01 0.115483999252D-06
    0.935666384546D+00 0.243093750000D+03-0.235373405655D+01-0.843499420851D-08
    0.101075638777D-09 0.100000000000D+01 0.237600000000D+04 0.000000000000D+00
    0.200000000000D+01 0.000000000000D+00 0.372529029846D-08 0.107000000000D+03
    0.288180000000D+05 0.400000000000D+01 0.000000000000D+00 0.000000000000D+00
31 25  7 20 10  0  0.0-0.199574045837D-03 0.147792889038D-11 0.000000000000D+00
    0.129000000000D+03-0.337500000000D+01 0.487484591404D-08-0.107598974565D+01
    0.130385160446D-06 0.106235737912D-01 0.634230673313D-05 0.515368711281D+04
    0.360000000000D+05 0.201165676117D-06-0.232926698428D+01 0.162050127983D-06
    0.954286780366D+00 0.247531250000D+03 0.840518558400D+00-0.810498046211D-08
    0.117862052285D-10 0.100000000000D+01 0.237600000000D+04 0.000000000000D+00
    0.200000000000D+01 0.000000000000D+00-0.135041773319D-07 0.129000000000D+03
    0.333480000000D+05 0.400000000000D+01 0.000000000000D+00 0.000000000000D+00
32 25  7 20 10  0  0.0-0.387447420508D-03 0.121644916362D-10 0.000000000000D+00
    0.330000000000D+02-0.263125000000D+02 0.414231540121D-08-0.287364198151D+01
   -0.127032399178D-05 0.857978162821D-02 0.921450555325D-05 0.515363197899D+04
    0.360000000000D+05 0.372529029846D-08 0.287426711713D+01-0.745058059692D-08
    0.965854028269D+00 0.202687500000D+03-0.205801074786D+01-0.756531512574D-08
    0.538593863168D-09 0.100000000000D+01 0.237600000000D+04 0.000000000000D+00
    0.200000000000D+01 0.000000000000D+00 0.931322574616D-09 0.330000000000D+02
    0.353580000000D+05 0.400000000000D+01 0.000000000000D+00 0.000000000000D+00
 2 25  7 20 11 59 44.0-0.117640011013D-03 0.898126018001D-11 0.000000000000D+00
    0.700000000000D+01 0.825000000000D+01 0.460697761340D-08-0.217368448499D+01
    0.804662704468D-06 0.164501664694D-01 0.152923166752D-05 0.515368250656D+04
    0.431840000000D+05-0.143423676491D-06 0.702916100580D+00 0.288709998131D-06
    0.965322854417D+00 0.352843750000D+03-0.958727512083D+00-0.817248327387D-08
   -0.392873507616D-11 0.100000000000D+01 0.237600000000D+04 0.000000000000D+00
    0.200000000000D+01 0.000000000000D+00-0.176951300000D-07 0.700000000000D+01
    0.360600000000D+05 0.400000000000D+01 0.000000000000D+00 0.000000000000D+00
 6 25  7 20 11 59 44.0-0.456243287772D-03-0.151203494170D-10 0.000000000000D+00
    0.740000000000D+02-0.173125000000D+02 0.422517599554D-08 0.181575071079D+01
   -0.739470124245D-06 0.333132559899D-02 0.110082328320D-05 0.515360976601D+04
    0.431840000000D+05 0.521540641785D-07 0.810742680767D+00-0.130385160446D-07
    0.988430132631D+00 0.369937500000D+03-0.665993094246D+00-0.820319883902D-08
   -0.156077929844D-09 0.100000000000D+01 0.237600000000D+04 0.000000000000D+00
    0.200000000000D+01 0.000000000000D+00 0.372529029846D-08 0.740000000000D+02
    0.373080000000D+05 0.400000000000D+01 0.000000000000D+00 0.000000000000D+00
 9 25  7 20 11 59 44.0 0.709502026439D-03 0.750333128963D-11 0.000000000000D+00
    0.320000000000D+02-0.348125000000D+02 0.441518391013D-08-0.196520378228D+01
   -0.184588134289D-05 0.328020739835D-02 0.941567122936D-05 0.515367141914D+04
    0.431840000000D+05-0.223517417908D-07 0.285802167665D+01 0.122934579849D-06
    0.962677225588D+00 0.198437500000D+03 0.198978253811D+01-0.781068248913D-08
    0.398945189097D-09 0.100000000000D+01 0.237600000000D+04 0.000000000000D+00
    0.200000000000D+01 0.000000000000D+00 0.465661287308D-09 0.320000000000D+02
    0.413930000000D+05 0.400000000000D+01 0.000000000000D+00 0.000000000000D+00
17 25  7 20 11 59 44.0 0.183033756912D-03-0.162572177942D-10 0.000000000000D+00
    0.180000000000D+02 0.140656250000D+03 0.445589989183D-08-0.254641214262D+01
    0.739097595215D-05 0.130678822752D-01 0.560097396374D-05 0.515372873879D+04
    0.431840000000D+05 0.689178705216D-07-0.199092784351D+00 0.158324837685D-06
    0.962889812454D+00 0.270156250000D+03-0.120714324072D+01-0.790175771135D-08
    0.199651173416D-09 0.100000000000D+01 0.237600000000D+04 0.000000000000D+00
    0.200000000000D+01 0.000000000000D+00-0.111758708954D-07 0.180000000000D+02
    0.402060000000D+05 0.400000000000D+01 0.000000000000D+00 0.000000000000D+00
